[{"OBJECT_NAME":"UNISAT-6","OBJECT_ID":"2014-033C","EPOCH":"2026-03-09T22:37:09.123744","MEAN_MOTION":14.87640019,"ECCENTRICITY":0.00460496,"INCLINATION":97.7728,"RA_OF_ASC_NODE":223.5167,"ARG_OF_PERICENTER":36.9255,"MEAN_ANOMALY":323.5117,"EPHEMERIS_TYPE":0,"CLASSIFICATION_TYPE":"U","NORAD_CAT_ID":40012,"ELEMENT_SET_NO":999,"REV_AT_EPOCH":63140,"BSTAR":0.00041207686,"MEAN_MOTION_DOT":3.766e-5,"MEAN_MOTION_DDOT":0},{"OBJECT_NAME":"COSMOS 886 DEB","OBJECT_ID":"1976-126AK","EPOCH":"2026-03-09T22:00:36.191520","MEAN_MOTION":13.00228714,"ECCENTRICITY":0.0900765,"INCLINATION":65.8029,"RA_OF_ASC_NODE":6.6624,"ARG_OF_PERICENTER":62.8308,"MEAN_ANOMALY":306.163,"EPHEMERIS_TYPE":0,"CLASSIFICATION_TYPE":"U","NORAD_CAT_ID":9823,"ELEMENT_SET_NO":999,"REV_AT_EPOCH":30216,"BSTAR":0.001213254,"MEAN_MOTION_DOT":2.612e-5,"MEAN_MOTION_DDOT":0}]
